[Satellite]
VERSION=1.1
NAME=ECHOSTAR 7
NICKNAME=ECHOSTAR 7
TLE1=1 27378U 02006A   15053.66134964 -.00000025  00000-0  00000+0 0  9995
TLE2=2 27378   0.0524 287.0176 0001002   5.7902 338.6586  1.00270275 47629
